"spkid","full_name","pdes","name","prefix","neo","pha","sats","H","G","M1","M2","K1","K2","PC","diameter","extent","albedo","rot_per","GM","BV","UB","IR","spec_B","spec_T","H_sigma","diameter_sigma","orbit_id","epoch","epoch_mjd","epoch_cal","equinox","e","a","q","i","om","w","ma","ad","n","tp","tp_cal","per","per_y","moid","moid_ld","moid_jup","t_jup","sigma_e","sigma_a","sigma_q","sigma_i","sigma_om","sigma_w","sigma_ma","sigma_ad","sigma_n","sigma_tp","sigma_per","class","producer","data_arc","first_obs","last_obs","n_obs_used","n_del_obs_used","n_dop_obs_used","condition_code","rms","two_body","A1","A1_sigma","A2","A2_sigma","A3","A3_sigma","DT","DT_sigma"
20012326," 12326 Shirasaki (1992 SF)",12326,Shirasaki,,N,N,1,14.78,,,,,,,,,,2.7286,,,,,,,,,"JPL 52",2460800.5,60800,2025-05-05.0,J2000,0.1871,2.263,1.840,5.83,2.90,17.39,196.42,2.69,0.2895,2461365.63,2026-11-21.1,1.24e+03,3.41,0.843,328,2.78,3.59,1.4e-09,7.5e-10,3.3e-09,8.5e-08,9.5e-07,9.5e-07,4.3e-07,8.9e-10,1.4e-10,1.7e-06,6.2e-07,MBA,"Otto Matic",18055,1975-10-03,2025-03-09,2503,,,0,.50992,,,,,,,,,
20013123," 13123 Tyson (1994 KA)",13123,Tyson,,N,N,1,12.65,,,,,,,10.875,,0.197,3.3303,,,,,,,,0.61,"JPL 63",2460800.5,60800,2025-05-05.0,J2000,0.2715,2.361,1.720,23.28,68.76,252.14,119.73,3.00,0.2717,2460359.82,2024-02-19.3,1.33e+03,3.63,0.835,325,2.53,3.4,5.9e-10,5.9e-10,1.4e-09,3.6e-08,9.6e-08,1.5e-07,3.6e-07,7.5e-10,1.0e-10,1.2e-06,4.9e-07,MBA,"Otto Matic",26350,1953-02-14,2025-04-07,8601,,,0,.26157,,,,,,,,,
20013920," 13920 Montecorvino (1985 PE1)",13920,Montecorvino,,N,N,1,14.77,,,,,,,,,,2.20231,,,,,,,,,"JPL 57",2460800.5,60800,2025-05-05.0,J2000,0.2383,2.163,1.648,3.14,308.32,9.68,184.69,2.68,0.3098,2461366.39,2026-11-21.8,1.16e+03,3.18,0.634,247,2.62,3.66,1.2e-09,6.9e-10,2.8e-09,3.0e-08,8.9e-07,1.0e-06,4.8e-07,8.5e-10,1.5e-10,1.7e-06,5.6e-07,MCA,"Otto Matic",16564,1979-11-24,2025-03-31,3693,,,0,.51389,,,,,,,,,
20014469," 14469 Komatsuataka (1993 RK)",14469,Komatsuataka,,N,N,1,13.78,,,,,,,4.021,,0.388,2.6226,,,,,,,,0.75,"JPL 50",2460800.5,60800,2025-05-05.0,J2000,0.2679,2.583,1.891,12.29,343.76,12.70,222.96,3.27,0.2375,2461377.61,2026-12-03.1,1.52e+03,4.15,0.888,345,2.17,3.34,7.3e-10,4.6e-10,2.0e-09,4.2e-08,2.9e-07,3.3e-07,2.0e-07,5.8e-10,6.3e-11,9.5e-07,4.0e-07,MBA,"Otto Matic",12469,1991-02-14,2025-04-05,3234,,,0,.43075,,,,,,,,,
20015107," 15107 Toepperwein (2000 CR49)",15107,Toepperwein,,N,N,1,14.80,,,,,,,2.859,,0.412,2.5327,,,,,,,,0.33,"JPL 57",2460800.5,60800,2025-05-05.0,J2000,0.1773,2.272,1.869,4.60,265.95,14.21,19.48,2.67,0.2878,2460732.83,2025-02-26.3,1.25e+03,3.42,0.853,332,2.45,3.59,9.0e-10,9.5e-10,2.2e-09,5.6e-08,1.0e-06,1.1e-06,5.3e-07,1.1e-09,1.8e-10,1.8e-06,7.9e-07,MBA,"Otto Matic",11948,1991-11-08,2024-07-25,4647,,,0,.39102,,,,,,,,,
20015268," 15268 Wendelinefroger (1990 WF3)",15268,Wendelinefroger,,N,N,1,14.79,,,,,,,,,,2.4224,,,,,,,,,"JPL 47",2460800.5,60800,2025-05-05.0,J2000,0.2340,2.366,1.812,2.75,143.97,210.41,209.16,2.92,0.2709,2461357.35,2026-11-12.8,1.33e+03,3.64,0.808,314,2.51,3.51,1.0e-09,6.0e-10,2.1e-09,5.3e-08,1.1e-06,1.2e-06,3.2e-07,7.4e-10,1.0e-10,1.4e-06,5.0e-07,MBA,"Otto Matic",16578,1979-11-17,2025-04-07,2858,,,0,.52988,,,,,,,,,
20015430," 15430 (1998 UR31)",15430,,,N,N,1,14.46,,,,,,,3.742,,0.290,2.52735,,,,,,,,0.03,"JPL 55",2460800.5,60800,2025-05-05.0,J2000,0.1698,2.222,1.845,8.18,62.74,177.27,177.22,2.60,0.2975,2460204.82,2023-09-17.3,1.21e+03,3.31,0.833,324,2.4,3.62,6.9e-10,5.4e-10,1.8e-09,3.3e-08,3.3e-07,4.3e-07,3.0e-07,6.3e-10,1.1e-10,9.6e-07,4.4e-07,MBA,"Otto Matic",25315,1955-10-25,2025-02-14,4520,,,0,.42957,,,,,,,,,
20015700," 15700 (1987 QD)",15700,,,N,N,1,14.94,,,,,,,,,,3.0586,,,,,,,,,"JPL 51",2460800.5,60800,2025-05-05.0,J2000,0.3153,2.209,1.512,26.79,175.35,119.64,192.85,2.91,0.3002,2461357.28,2026-11-12.7,1.2e+03,3.28,0.621,242,2.78,3.46,1.4e-09,1.4e-09,2.9e-09,1.6e-07,1.8e-07,7.0e-07,1.3e-06,1.9e-09,2.9e-10,4.8e-06,1.2e-06,MCA,"Otto Matic",25855,1954-05-27,2025-03-10,4890,,,0,.33743,,,,,,,,,
20015745," 15745 Yuliya (1991 PM5)",15745,Yuliya,,Y,N,1,17.41,,,,,,,,,,3.2486,,,,,S,,,,"JPL 253",2460800.5,60800,2025-05-05.0,J2000,0.2555,1.72,1.280,14.43,132.57,140.64,11.78,2.16,0.437,2460773.54,2025-04-08.0,824,2.26,0.296,115,3.01,4.1,1.5e-09,1.1e-09,2.9e-09,6.7e-08,9.8e-07,7.9e-07,9.6e-07,1.4e-09,4.4e-10,2.2e-06,8.2e-07,AMO,"Otto Matic",15145,1982-07-27,2024-01-13,1631,,,0,.5443,,,,,,,,,
20015822," 15822 Genefahnestock (1994 TV15)",15822,Genefahnestock,,N,N,1,14.81,,,,,,,1.720,,1.000,2.95998,,,,,,,,0.29,"JPL 55",2460800.5,60800,2025-05-05.0,J2000,0.0798,1.948,1.793,22.03,190.81,150.19,108.98,2.10,0.3624,2460499.82,2024-07-08.3,993,2.72,0.803,312,3.13,3.8,3.8e-10,2.7e-10,8.3e-10,4.8e-08,1.0e-07,5.2e-07,4.5e-07,2.9e-10,7.5e-11,1.3e-06,2.0e-07,IMB,"Otto Matic",26119,1953-08-16,2025-02-18,5935,,,0,.34534,,,,,,,,,
20016525," 16525 Shumarinaiko (1991 CU2)",16525,Shumarinaiko,,N,N,1,13.80,,,,,,,5.253,,0.306,2.5932,,,,,,,,0.15,"JPL 59",2460800.5,60800,2025-05-05.0,J2000,0.1387,2.4,2.067,2.42,7.58,181.30,52.03,2.73,0.2651,2460604.27,2024-10-20.7,1.36e+03,3.72,1.07,415,2.22,3.51,6.3e-10,5.1e-10,1.8e-09,3.5e-08,8.5e-07,8.7e-07,3.6e-07,5.8e-10,8.5e-11,1.3e-06,4.3e-07,MBA,"Otto Matic",27404,1950-03-21,2025-03-31,4496,,,0,.48954,,,,,,,,,
20016635," 16635 (1993 QO)",16635,,,N,N,1,14.36,,,,,,,3.078,,0.387,2.20827,,,,,,,,0.49,"JPL 40",2460800.5,60800,2025-05-05.0,J2000,0.2850,2.298,1.643,21.93,313.71,78.06,359.53,2.95,0.2829,2460802.17,2025-05-06.6,1.27e+03,3.48,0.781,304,2.9,3.45,6.0e-10,5.9e-10,1.3e-09,4.1e-08,1.1e-07,1.8e-07,4.7e-07,7.6e-10,1.1e-10,1.7e-06,4.9e-07,MCA,"Otto Matic",13890,1986-08-26,2024-09-05,2745,,,0,.49104,,,,,,,,,
20016694," 16694 (1995 AJ)",16694,,,N,N,1,14.09,,,,,,,4.055,,0.386,3.6421,,,,,,,,0.03,"JPL 54",2460800.5,60800,2025-05-05.0,J2000,0.2077,2.237,1.773,6.42,285.97,39.69,157.16,2.70,0.2945,2460266.88,2023-11-18.3,1.22e+03,3.35,0.766,298,2.62,3.6,5.4e-10,4.4e-10,1.3e-09,3.2e-08,3.0e-07,3.5e-07,4.0e-07,5.3e-10,8.6e-11,1.3e-06,3.6e-07,MBA,"Otto Matic",13170,1989-03-09,2025-03-30,4714,,,0,.4196,,,,,,,,,
20016974," 16974 Iphthime (1998 WR21)",16974,Iphthime,,N,N,1,9.93,,,,,,,57.341,,0.065,78.9,,,,,,,,0.33,"JPL 49",2460800.5,60800,2025-05-05.0,J2000,0.0691,5.177,4.820,15.04,241.53,137.22,116.99,5.54,0.08366,2459402.18,2021-07-06.6,4.3e+03,11.8,3.84,1.49e+03,0.0487,2.93,7.6e-09,4.9e-08,7.0e-08,2.4e-07,8.3e-07,8.8e-06,6.4e-06,5.2e-08,1.2e-09,9.2e-05,6.1e-05,TJN,"Davide Farnocchia",12063,1991-05-07,2024-05-16,4105,,,0,.31378,,,,,,,,,
20017081," 17081 Jaytee (1999 JT1)",17081,Jaytee,,N,N,1,14.22,,,,,,,4.515,,0.239,2.8818,,,,,,,,0.17,"JPL 57",2460800.5,60800,2025-05-05.0,J2000,0.2136,2.315,1.821,6.41,153.76,207.79,356.53,2.81,0.2798,2460812.89,2025-05-17.3,1.29e+03,3.52,0.82,319,2.64,3.54,9.2e-10,8.0e-10,1.8e-09,7.8e-08,7.4e-07,9.8e-07,7.7e-07,9.7e-10,1.4e-10,2.8e-06,6.6e-07,MBA,"Otto Matic",14435,1985-03-23,2024-09-29,5000,,,0,.42087,,,,,,,,,
20017246," 17246 Christophedumas (2000 GL74)",17246,Christophedumas,,N,N,1,14.04,,,,,,,,,,10,,,,,,,,,"JPL 78",2460800.5,60800,2025-05-05.0,J2000,0.0230,2.84,2.775,2.44,34.28,221.06,46.05,2.91,0.2059,2460576.89,2024-09-23.3,1.75e+03,4.79,1.76,685,2.08,3.31,1.6e-09,2.6e-09,6.7e-09,9.6e-08,1.4e-06,2.7e-06,2.6e-06,2.7e-09,2.9e-10,1.2e-05,2.4e-06,MBA,"Otto Matic",19464,1971-04-16,2024-07-30,2963,,,0,.50943,,,,,,,,,
20017251," 17251 Vondracek (2000 GA127)",17251,Vondracek,,N,N,1,14.06,,,,,,,5.203,,0.237,3.78,,,,,,,,0.03,"JPL 58",2460800.5,60800,2025-05-05.0,J2000,0.1694,2.286,1.899,7.09,131.47,141.91,67.82,2.67,0.2851,2460562.61,2024-09-09.1,1.26e+03,3.46,0.889,346,2.45,3.57,4.9e-10,4.8e-10,1.3e-09,2.6e-08,4.7e-07,5.2e-07,4.4e-07,5.6e-10,9.0e-11,1.5e-06,4.0e-07,MBA,"Otto Matic",12435,1990-09-17,2024-10-03,4874,,,0,.41258,,,,,,,,,
20017260," 17260 Kusnirak (2000 JQ58)",17260,Kusnirak,,N,N,1,14.55,,,,,,,,,,3.1285,,,,,,,,,"JPL 79",2460800.5,60800,2025-05-05.0,J2000,0.1843,2.204,1.798,5.29,199.72,290.66,323.87,2.61,0.3012,2460920.47,2025-09-01.9,1.2e+03,3.27,0.82,319,2.46,3.63,6.0e-10,3.7e-10,1.5e-09,3.2e-08,2.7e-07,3.2e-07,1.7e-07,4.4e-10,7.7e-11,6.0e-07,3.0e-07,MBA,"Otto Matic",27492,1949-11-19,2025-02-25,4576,,,0,.43937,,,,,,,,,
20017700," 17700 Oleksiygolubov (1997 GM40)",17700,Oleksiygolubov,,N,N,1,14.17,,,,,,,3.446,,0.410,3.8382,,,,,,,,0.12,"JPL 49",2460800.5,60800,2025-05-05.0,J2000,0.1929,2.321,1.873,8.49,66.08,55.17,43.83,2.77,0.2788,2460643.29,2024-11-28.7,1.29e+03,3.54,0.903,352,2.37,3.54,1.1e-09,6.0e-10,2.8e-09,4.5e-08,2.7e-07,2.9e-07,3.2e-07,7.2e-10,1.1e-10,1.1e-06,5.0e-07,MBA,"Otto Matic",26054,1953-12-07,2025-04-07,3766,,,0,.44596,,,,,,,,,
20018301," 18301 Konyukhov (1979 QZ9)",18301,Konyukhov,,N,N,1,13.55,,,,,,,,,,2.6667,,,,,,,,,"JPL 62",2460800.5,60800,2025-05-05.0,J2000,0.1793,2.253,1.849,3.25,310.11,30.58,190.80,2.66,0.2915,2461380.89,2026-12-06.3,1.23e+03,3.38,0.841,327,2.72,3.6,7.4e-10,5.9e-10,2.0e-09,2.5e-08,3.7e-07,4.2e-07,5.0e-07,6.9e-10,1.1e-10,1.9e-06,4.8e-07,MBA,"Otto Matic",16659,1979-08-27,2025-04-06,4716,,,0,.43333,,,,,,,,,
20018303," 18303 (1980 PU)",18303,,,N,N,1,14.59,,,,,,,,,,2.72627,,,,,,,,,"JPL 57",2460800.5,60800,2025-05-05.0,J2000,0.2066,2.191,1.738,4.27,222.76,57.03,309.23,2.64,0.3039,2460967.53,2025-10-19.0,1.18e+03,3.24,0.727,283,2.49,3.64,7.7e-10,6.5e-10,1.8e-09,7.5e-08,6.0e-07,7.2e-07,3.0e-07,7.9e-10,1.4e-10,1.0e-06,5.3e-07,MBA,"Otto Matic",16317,1980-08-04,2025-04-07,3127,,,0,.49814,,,,,,,,,
20018527," 18527 (1996 VJ30)",18527,,,N,N,1,14.01,,,,,,,3.348,,0.572,3.3529,,,,,,,,0.48,"JPL 59",2460800.5,60800,2025-05-05.0,J2000,0.1435,2.399,2.055,5.46,243.37,104.48,293.02,2.74,0.2652,2461053.05,2026-01-12.5,1.36e+03,3.72,1.06,411,2.67,3.51,6.1e-10,6.8e-10,1.7e-09,5.2e-08,4.7e-07,5.0e-07,3.0e-07,7.8e-10,1.1e-10,1.2e-06,5.8e-07,MBA,"Otto Matic",26648,1951-08-10,2024-07-25,3653,,,0,.44104,,,,,,,,,
